LUR-1                   
1 60506U 24149AQ  26068.79566301  .00009121  00000+0  32985-3 0  9998
2 60506  97.3790 148.4255 0002777 309.1571  50.9421 15.28658648 86785
STARLINK-33646          
1 63280U 25053R   26068.47817681  .00031363  00000+0  11436-2 0  9990
2 63280  42.9971 242.7529 0001018 236.3749 123.7006 15.27602226 56168
